STARLINK-6335
1 56527U 23065AA  26090.05379199  .00008546  00000+0  64586-3 0  9995
2 56527  43.0040  93.7987 0000986 296.2508  63.8233 15.02598659159848
